{
  "type": "FeatureCollection",
  "features": [
    {
      "type": "Feature",
      "properties": {
        "norad_id": 34459,
        "name": "COSMOS 2251 DEB",
        "group": "cosmos-2251-debris",
        "lat": 31.165704848243486,
        "lon": 78.43097571304533,
        "alt_km": 1026.030696947605,
        "timestamp": "2025-12-04T10:51:50.500383+00:00",
        "meta_object_name": "COSMOS 2251 DEB",
        "meta_object_id": "1993-036TC",
        "meta_epoch": "2025-12-03T20:26:48.669216",
        "meta_mean_motion": 14.00473048,
        "meta_eccentricity": 0.0191878,
        "meta_inclination": 74.079,
        "meta_ra_of_asc_node": 269.4096,
        "meta_arg_of_pericenter": 341.2033,
        "meta_mean_anomaly": 18.2079,
        "meta_ephemeris_type": 0,
        "meta_classification_type": "U",
        "meta_norad_cat_id": 34459,
        "meta_element_set_no": 999,
        "meta_rev_at_epoch": 85587,
        "meta_bstar": 0.0010678,
        "meta_mean_motion_dot": 1.834e-05,
        "meta_mean_motion_ddot": 0,
        "tle_line1": "1 34459U 93036TC  25337.85195219  .00001834  00000+0  10678-2 0  9995",
        "tle_line2": "2 34459  74.0790 269.4096 0191878 341.2033  18.2079 14.00473048855871"
      },
      "geometry": {
        "type": "Point",
        "coordinates": [
          78.43097571304533,
          31.165704848243486
        ]
      }
    },
    {
      "type": "Feature",
      "properties": {
        "norad_id": 34464,
        "name": "COSMOS 2251 DEB",
        "group": "cosmos-2251-debris",
        "lat": 37.37849230436352,
        "lon": -96.81297140896208,
        "alt_km": 494.3334426433021,
        "timestamp": "2025-12-04T10:51:50.500394+00:00",
        "meta_object_name": "COSMOS 2251 DEB",
        "meta_object_id": "1993-036TH",
        "meta_epoch": "2025-12-03T09:03:23.315616",
        "meta_mean_motion": 15.24915222,
        "meta_eccentricity": 0.00173278,
        "meta_inclination": 73.9895,
        "meta_ra_of_asc_node": 98.1357,
        "meta_arg_of_pericenter": 268.9386,
        "meta_mean_anomaly": 90.9829,
        "meta_ephemeris_type": 0,
        "meta_classification_type": "U",
        "meta_norad_cat_id": 34464,
        "meta_element_set_no": 999,
        "meta_rev_at_epoch": 89697,
        "meta_bstar": 0.0038136435,
        "meta_mean_motion_dot": 0.00096566,
        "meta_mean_motion_ddot": 0,
        "tle_line1": "1 34464U 93036TH  25337.37735319  .00096566  00000+0  38136-2 0  9994",
        "tle_line2": "2 34464  73.9895  98.1357 0017327 268.9386  90.9829 15.24915222896978"
      },
      "geometry": {
        "type": "Point",
        "coordinates": [
          -96.81297140896208,
          37.37849230436352
        ]
      }
    },
    {
      "type": "Feature",
      "properties": {
        "norad_id": 34468,
        "name": "COSMOS 2251 DEB",
        "group": "cosmos-2251-debris",
        "lat": -5.145954733273134,
        "lon": -45.790817762989036,
        "alt_km": 740.2123475909684,
        "timestamp": "2025-12-04T10:51:50.500404+00:00",
        "meta_object_name": "COSMOS 2251 DEB",
        "meta_object_id": "1993-036TM",
        "meta_epoch": "2025-12-03T12:26:28.701600",
        "meta_mean_motion": 14.47585329,
        "meta_eccentricity": 0.00762634,
        "meta_inclination": 74.0114,
        "meta_ra_of_asc_node": 134.4793,
        "meta_arg_of_pericenter": 281.249,
        "meta_mean_anomaly": 78.0104,
        "meta_ephemeris_type": 0,
        "meta_classification_type": "U",
        "meta_norad_cat_id": 34468,
        "meta_element_set_no": 999,
        "meta_rev_at_epoch": 88328,
        "meta_bstar": 0.00044665533,
        "meta_mean_motion_dot": 1.676e-05,
        "meta_mean_motion_ddot": 0,
        "tle_line1": "1 34468U 93036TM  25337.51838775  .00001676  00000+0  44666-3 0  9998",
        "tle_line2": "2 34468  74.0114 134.4793 0076263 281.2490  78.0104 14.47585329883282"
      },
      "geometry": {
        "type": "Point",
        "coordinates": [
          -45.790817762989036,
          -5.145954733273134
        ]
      }
    },
    {
      "type": "Feature",
      "properties": {
        "norad_id": 34472,
        "name": "COSMOS 2251 DEB",
        "group": "cosmos-2251-debris",
        "lat": -2.6621086295011636,
        "lon": 111.01317919883869,
        "alt_km": 1088.0578861061103,
        "timestamp": "2025-12-04T10:51:50.500415+00:00",
        "meta_object_name": "COSMOS 2251 DEB",
        "meta_object_id": "1993-036TR",
        "meta_epoch": "2025-12-03T15:36:16.702848",
        "meta_mean_motion": 13.70310012,
        "meta_eccentricity": 0.03271295,
        "meta_inclination": 74.0821,
        "meta_ra_of_asc_node": 113.0928,
        "meta_arg_of_pericenter": 246.0443,
        "meta_mean_anomaly": 110.6103,
        "meta_ephemeris_type": 0,
        "meta_classification_type": "U",
        "meta_norad_cat_id": 34472,
        "meta_element_set_no": 999,
        "meta_rev_at_epoch": 83602,
        "meta_bstar": 0.0015293427,
        "meta_mean_motion_dot": 1.946e-05,
        "meta_mean_motion_ddot": 0,
        "tle_line1": "1 34472U 93036TR  25337.65019332  .00001946  00000+0  15293-2 0  9991",
        "tle_line2": "2 34472  74.0821 113.0928 0327129 246.0443 110.6103 13.70310012836024"
      },
      "geometry": {
        "type": "Point",
        "coordinates": [
          111.01317919883869,
          -2.6621086295011636
        ]
      }
    },
    {
      "type": "Feature",
      "properties": {
        "norad_id": 34474,
        "name": "COSMOS 2251 DEB",
        "group": "cosmos-2251-debris",
        "lat": 42.36538761933983,
        "lon": 145.55527783308253,
        "alt_km": 837.5313946116548,
        "timestamp": "2025-12-04T10:51:50.500425+00:00",
        "meta_object_name": "COSMOS 2251 DEB",
        "meta_object_id": "1993-036TT",
        "meta_epoch": "2025-12-04T01:57:58.674240",
        "meta_mean_motion": 14.06328137,
        "meta_eccentricity": 0.0197789,
        "meta_inclination": 74.0782,
        "meta_ra_of_asc_node": 341.292,
        "meta_arg_of_pericenter": 57.3736,
        "meta_mean_anomaly": 359.6101,
        "meta_ephemeris_type": 0,
        "meta_classification_type": "U",
        "meta_norad_cat_id": 34474,
        "meta_element_set_no": 999,
        "meta_rev_at_epoch": 85387,
        "meta_bstar": 0.0026664,
        "meta_mean_motion_dot": 5.229e-05,
        "meta_mean_motion_ddot": 0,
        "tle_line1": "1 34474U 93036TT  25338.08192910  .00005229  00000+0  26664-2 0  9997",
        "tle_line2": "2 34474  74.0782 341.2920 0197789  57.3736 359.6101 14.06328137853876"
      },
      "geometry": {
        "type": "Point",
        "coordinates": [
          145.55527783308253,
          42.36538761933983
        ]
      }
    },
    {
      "type": "Feature",
      "properties": {
        "norad_id": 34476,
        "name": "COSMOS 2251 DEB",
        "group": "cosmos-2251-debris",
        "lat": 61.590477954270284,
        "lon": -115.54983348540327,
        "alt_km": 1163.0857045215907,
        "timestamp": "2025-12-04T10:51:50.500436+00:00",
        "meta_object_name": "COSMOS 2251 DEB",
        "meta_object_id": "1993-036TV",
        "meta_epoch": "2025-12-03T08:15:02.261088",
        "meta_mean_motion": 13.81885878,
        "meta_eccentricity": 0.0319026,
        "meta_inclination": 74.0059,
        "meta_ra_of_asc_node": 98.3392,
        "meta_arg_of_pericenter": 319.9917,
        "meta_mean_anomaly": 37.8086,
        "meta_ephemeris_type": 0,
        "meta_classification_type": "U",
        "meta_norad_cat_id": 34476,
        "meta_element_set_no": 999,
        "meta_rev_at_epoch": 83508,
        "meta_bstar": 0.0036576,
        "meta_mean_motion_dot": 5.76e-05,
        "meta_mean_motion_ddot": 0,
        "tle_line1": "1 34476U 93036TV  25337.34377617  .00005760  00000+0  36576-2 0  9999",
        "tle_line2": "2 34476  74.0059  98.3392 0319026 319.9917  37.8086 13.81885878835088"
      },
      "geometry": {
        "type": "Point",
        "coordinates": [
          -115.54983348540327,
          61.590477954270284
        ]
      }
    },
    {
      "type": "Feature",
      "properties": {
        "norad_id": 34477,
        "name": "COSMOS 2251 DEB",
        "group": "cosmos-2251-debris",
        "lat": -59.84926970212214,
        "lon": 55.64392540009465,
        "alt_km": 659.8559238721,
        "timestamp": "2025-12-04T10:51:50.500446+00:00",
        "meta_object_name": "COSMOS 2251 DEB",
        "meta_object_id": "1993-036TW",
        "meta_epoch": "2025-12-04T03:10:49.511136",
        "meta_mean_motion": 14.56758073,
        "meta_eccentricity": 0.0076919,
        "meta_inclination": 73.979,
        "meta_ra_of_asc_node": 85.9011,
        "meta_arg_of_pericenter": 274.623,
        "meta_mean_anomaly": 142.6948,
        "meta_ephemeris_type": 0,
        "meta_classification_type": "U",
        "meta_norad_cat_id": 34477,
        "meta_element_set_no": 999,
        "meta_rev_at_epoch": 88500,
        "meta_bstar": 0.0018706,
        "meta_mean_motion_dot": 8.69e-05,
        "meta_mean_motion_ddot": 0,
        "tle_line1": "1 34477U 93036TW  25338.13251749  .00008690  00000+0  18706-2 0  9995",
        "tle_line2": "2 34477  73.9790  85.9011 0076919 274.6230 142.6948 14.56758073885003"
      },
      "geometry": {
        "type": "Point",
        "coordinates": [
          55.64392540009465,
          -59.84926970212214
        ]
      }
    }
  ]
}